[
  { "location": "DLF Phase 1", "city": "Gurugram", "slug": "dlf-phase-1-gurugram", "postalCode": "122002", "zipCode": "122002" },
  { "location": "DLF Phase 2", "city": "Gurugram", "slug": "dlf-phase-2-gurugram", "postalCode": "122008", "zipCode": "122008" },
  { "location": "DLF Phase 3", "city": "Gurugram", "slug": "dlf-phase-3-gurugram", "postalCode": "122010", "zipCode": "122010" },
  { "location": "DLF Phase 4", "city": "Gurugram", "slug": "dlf-phase-4-gurugram", "postalCode": "122009", "zipCode": "122009" },
  { "location": "DLF Phase 5", "city": "Gurugram", "slug": "dlf-phase-5-gurugram", "postalCode": "122009", "zipCode": "122009" },

  { "location": "Sushant Lok Phase 1", "city": "Gurugram", "slug": "sushant-lok-phase-1-gurugram", "postalCode": "122009", "zipCode": "122009" },
  { "location": "Sushant Lok Phase 2", "city": "Gurugram", "slug": "sushant-lok-phase-2-gurugram", "postalCode": "122002", "zipCode": "122002" },
  { "location": "Sushant Lok Phase 3", "city": "Gurugram", "slug": "sushant-lok-phase-3-gurugram", "postalCode": "122011", "zipCode": "122011" },

  { "location": "Palam Vihar", "city": "Gurugram", "slug": "palam-vihar-gurugram", "postalCode": "122017", "zipCode": "122017" },
  { "location": "South City 1", "city": "Gurugram", "slug": "south-city-1-gurugram", "postalCode": "122001", "zipCode": "122001" },
  { "location": "South City 2", "city": "Gurugram", "slug": "south-city-2-gurugram", "postalCode": "122018", "zipCode": "122018" },

  { "location": "Malibu Town", "city": "Gurugram", "slug": "malibu-town-gurugram", "postalCode": "122018", "zipCode": "122018" },
  { "location": "Greenwood City", "city": "Gurugram", "slug": "greenwood-city-gurugram", "postalCode": "122018", "zipCode": "122018" },
  { "location": "Nirvana Country", "city": "Gurugram", "slug": "nirvana-country-gurugram", "postalCode": "122018", "zipCode": "122018" },
  { "location": "Ardee City", "city": "Gurugram", "slug": "ardee-city-gurugram", "postalCode": "122003", "zipCode": "122003" },
  { "location": "Vipul World", "city": "Gurugram", "slug": "vipul-world-gurugram", "postalCode": "122018", "zipCode": "122018" },
  { "location": "Rosewood City", "city": "Gurugram", "slug": "rosewood-city-gurugram", "postalCode": "122018", "zipCode": "122018" },
  { "location": "Saraswati Vihar", "city": "Gurugram", "slug": "saraswati-vihar-gurugram", "postalCode": "122001", "zipCode": "122001" },

  { "location": "Shivaji Nagar", "city": "Gurugram", "slug": "shivaji-nagar-gurugram", "postalCode": "122001", "zipCode": "122001" },
  { "location": "Ashok Vihar", "city": "Gurugram", "slug": "ashok-vihar-gurugram", "postalCode": "122001", "zipCode": "122001" },
  { "location": "New Colony", "city": "Gurugram", "slug": "new-colony-gurugram", "postalCode": "122001", "zipCode": "122001" },
  { "location": "Patel Nagar", "city": "Gurugram", "slug": "patel-nagar-gurugram", "postalCode": "122001", "zipCode": "122001" },
  { "location": "Laxman Vihar", "city": "Gurugram", "slug": "laxman-vihar-gurugram", "postalCode": "122006", "zipCode": "122006" },
  { "location": "Rajiv Nagar", "city": "Gurugram", "slug": "rajiv-nagar-gurugram", "postalCode": "122001", "zipCode": "122001" },
  { "location": "Basai Village", "city": "Gurugram", "slug": "basai-village-gurugram", "postalCode": "122006", "zipCode": "122006" },

  { "location": "Sikanderpur", "city": "Gurugram", "slug": "sikanderpur-gurugram", "postalCode": "122004", "zipCode": "122004" },
  { "location": "Wazirabad", "city": "Gurugram", "slug": "wazirabad-gurugram", "postalCode": "122003", "zipCode": "122003" },
  { "location": "Badshahpur", "city": "Gurugram", "slug": "badshahpur-gurugram", "postalCode": "122101", "zipCode": "122101" },
  { "location": "Kadarpur", "city": "Gurugram", "slug": "kadarpur-gurugram", "postalCode": "122101", "zipCode": "122101" },

  { "location": "Manesar", "city": "Gurugram", "slug": "manesar-gurugram", "postalCode": "122051", "zipCode": "122051" },

  { "location": "IFFCO Chowk", "city": "Gurugram", "slug": "iffco-chowk-gurugram", "postalCode": "122001", "zipCode": "122001" },
  { "location": "Rajiv Chowk", "city": "Gurugram", "slug": "rajiv-chowk-gurugram", "postalCode": "122001", "zipCode": "122001" },
  { "location": "Shankar Chowk", "city": "Gurugram", "slug": "shankar-chowk-gurugram", "postalCode": "122002", "zipCode": "122002" },
  { "location": "HUDA City Centre", "city": "Gurugram", "slug": "huda-city-centre-gurugram", "postalCode": "122001", "zipCode": "122001" },
  { "location": "MG Road", "city": "Gurugram", "slug": "mg-road-gurugram", "postalCode": "122002", "zipCode": "122002" },
  { "location": "Sikanderpur Chowk", "city": "Gurugram", "slug": "sikanderpur-chowk-gurugram", "postalCode": "122004", "zipCode": "122004" },
  { "location": "Vatika Chowk", "city": "Gurugram", "slug": "vatika-chowk-gurugram", "postalCode": "122018", "zipCode": "122018" },
  { "location": "Subhash Chowk", "city": "Gurugram", "slug": "subhash-chowk-gurugram", "postalCode": "122001", "zipCode": "122001" },
  { "location": "Hero Honda Chowk", "city": "Gurugram", "slug": "hero-honda-chowk-gurugram", "postalCode": "122004", "zipCode": "122004" },

  { "location": "Sohna Road", "city": "Gurugram", "slug": "sohna-road-gurugram", "postalCode": "122018", "zipCode": "122018" },
  { "location": "Golf Course Road", "city": "Gurugram", "slug": "golf-course-road-gurugram", "postalCode": "122002", "zipCode": "122002" },
  { "location": "Golf Course Extension Road", "city": "Gurugram", "slug": "golf-course-extension-road-gurugram", "postalCode": "122018", "zipCode": "122018" },

  { "location": "Sector 1", "city": "Gurugram", "slug": "sector-1-gurugram", "postalCode": "122001", "zipCode": "122001" },
  { "location": "Sector 2", "city": "Gurugram", "slug": "sector-2-gurugram", "postalCode": "122001", "zipCode": "122001" },
  { "location": "Sector 3", "city": "Gurugram", "slug": "sector-3-gurugram", "postalCode": "122001", "zipCode": "122001" },
  { "location": "Sector 4", "city": "Gurugram", "slug": "sector-4-gurugram", "postalCode": "122001", "zipCode": "122001" },
  { "location": "Sector 5", "city": "Gurugram", "slug": "sector-5-gurugram", "postalCode": "122001", "zipCode": "122001" },
  { "location": "Sector 6", "city": "Gurugram", "slug": "sector-6-gurugram", "postalCode": "122001", "zipCode": "122001" },
  { "location": "Sector 7", "city": "Gurugram", "slug": "sector-7-gurugram", "postalCode": "122001", "zipCode": "122001" },
  { "location": "Sector 8", "city": "Gurugram", "slug": "sector-8-gurugram", "postalCode": "122001", "zipCode": "122001" },
  { "location": "Sector 9", "city": "Gurugram", "slug": "sector-9-gurugram", "postalCode": "122001", "zipCode": "122001" },
  { "location": "Sector 10", "city": "Gurugram", "slug": "sector-10-gurugram", "postalCode": "122001", "zipCode": "122001" },
  { "location": "Sector 11", "city": "Gurugram", "slug": "sector-11-gurugram", "postalCode": "122001", "zipCode": "122001" },
  { "location": "Sector 12", "city": "Gurugram", "slug": "sector-12-gurugram", "postalCode": "122001", "zipCode": "122001" },
  { "location": "Sector 13", "city": "Gurugram", "slug": "sector-13-gurugram", "postalCode": "122001", "zipCode": "122001" },
  { "location": "Sector 14", "city": "Gurugram", "slug": "sector-14-gurugram", "postalCode": "122001", "zipCode": "122001" },
  { "location": "Sector 15", "city": "Gurugram", "slug": "sector-15-gurugram", "postalCode": "122001", "zipCode": "122001" },
  { "location": "Sector 16", "city": "Gurugram", "slug": "sector-16-gurugram", "postalCode": "122001", "zipCode": "122001" },
  { "location": "Sector 17", "city": "Gurugram", "slug": "sector-17-gurugram", "postalCode": "122001", "zipCode": "122001" },

  { "location": "Sector 18", "city": "Gurugram", "slug": "sector-18-gurugram", "postalCode": "122015", "zipCode": "122015" },

  { "location": "Sector 19", "city": "Gurugram", "slug": "sector-19-gurugram", "postalCode": "122016", "zipCode": "122016" },
  { "location": "Sector 20", "city": "Gurugram", "slug": "sector-20-gurugram", "postalCode": "122016", "zipCode": "122016" },
  { "location": "Sector 21", "city": "Gurugram", "slug": "sector-21-gurugram", "postalCode": "122016", "zipCode": "122016" },

  { "location": "Sector 22", "city": "Gurugram", "slug": "sector-22-gurugram", "postalCode": "122015", "zipCode": "122015" },
  { "location": "Sector 23", "city": "Gurugram", "slug": "sector-23-gurugram", "postalCode": "122017", "zipCode": "122017" },

  { "location": "Sector 24", "city": "Gurugram", "slug": "sector-24-gurugram", "postalCode": "122002", "zipCode": "122002" },
  { "location": "Sector 25", "city": "Gurugram", "slug": "sector-25-gurugram", "postalCode": "122002", "zipCode": "122002" },
  { "location": "Sector 26", "city": "Gurugram", "slug": "sector-26-gurugram", "postalCode": "122002", "zipCode": "122002" },

  { "location": "Sector 27", "city": "Gurugram", "slug": "sector-27-gurugram", "postalCode": "122009", "zipCode": "122009" },
  { "location": "Sector 28", "city": "Gurugram", "slug": "sector-28-gurugram", "postalCode": "122002", "zipCode": "122002" },

  { "location": "Sector 29", "city": "Gurugram", "slug": "sector-29-gurugram", "postalCode": "122001", "zipCode": "122001" },
  { "location": "Sector 30", "city": "Gurugram", "slug": "sector-30-gurugram", "postalCode": "122001", "zipCode": "122001" },

  { "location": "Sector 31", "city": "Gurugram", "slug": "sector-31-gurugram", "postalCode": "122001", "zipCode": "122001" },
  { "location": "Sector 32", "city": "Gurugram", "slug": "sector-32-gurugram", "postalCode": "122001", "zipCode": "122001" },
  { "location": "Sector 33", "city": "Gurugram", "slug": "sector-33-gurugram", "postalCode": "122001", "zipCode": "122001" },
  { "location": "Sector 34", "city": "Gurugram", "slug": "sector-34-gurugram", "postalCode": "122001", "zipCode": "122001" },

  { "location": "Sector 35", "city": "Gurugram", "slug": "sector-35-gurugram", "postalCode": "122004", "zipCode": "122004" },
  { "location": "Sector 36", "city": "Gurugram", "slug": "sector-36-gurugram", "postalCode": "122004", "zipCode": "122004" },
  { "location": "Sector 37", "city": "Gurugram", "slug": "sector-37-gurugram", "postalCode": "122004", "zipCode": "122004" },

  { "location": "Sector 38", "city": "Gurugram", "slug": "sector-38-gurugram", "postalCode": "122001", "zipCode": "122001" },
  { "location": "Sector 39", "city": "Gurugram", "slug": "sector-39-gurugram", "postalCode": "122001", "zipCode": "122001" },
  { "location": "Sector 40", "city": "Gurugram", "slug": "sector-40-gurugram", "postalCode": "122001", "zipCode": "122001" },
  { "location": "Sector 41", "city": "Gurugram", "slug": "sector-41-gurugram", "postalCode": "122001", "zipCode": "122001" },

  { "location": "Sector 42", "city": "Gurugram", "slug": "sector-42-gurugram", "postalCode": "122009", "zipCode": "122009" },
  { "location": "Sector 43", "city": "Gurugram", "slug": "sector-43-gurugram", "postalCode": "122009", "zipCode": "122009" },

  { "location": "Sector 44", "city": "Gurugram", "slug": "sector-44-gurugram", "postalCode": "122003", "zipCode": "122003" },
  { "location": "Sector 45", "city": "Gurugram", "slug": "sector-45-gurugram", "postalCode": "122003", "zipCode": "122003" },
  { "location": "Sector 46", "city": "Gurugram", "slug": "sector-46-gurugram", "postalCode": "122003", "zipCode": "122003" },

  { "location": "Sector 47", "city": "Gurugram", "slug": "sector-47-gurugram", "postalCode": "122018", "zipCode": "122018" },
  { "location": "Sector 48", "city": "Gurugram", "slug": "sector-48-gurugram", "postalCode": "122018", "zipCode": "122018" },
  { "location": "Sector 49", "city": "Gurugram", "slug": "sector-49-gurugram", "postalCode": "122018", "zipCode": "122018" },
  { "location": "Sector 50", "city": "Gurugram", "slug": "sector-50-gurugram", "postalCode": "122018", "zipCode": "122018" },

  { "location": "Sector 51", "city": "Gurugram", "slug": "sector-51-gurugram", "postalCode": "122003", "zipCode": "122003" },
  { "location": "Sector 52", "city": "Gurugram", "slug": "sector-52-gurugram", "postalCode": "122003", "zipCode": "122003" },

  { "location": "Sector 53", "city": "Gurugram", "slug": "sector-53-gurugram", "postalCode": "122002", "zipCode": "122002" },

  { "location": "Sector 54", "city": "Gurugram", "slug": "sector-54-gurugram", "postalCode": "122011", "zipCode": "122011" },
  { "location": "Sector 55", "city": "Gurugram", "slug": "sector-55-gurugram", "postalCode": "122011", "zipCode": "122011" },
  { "location": "Sector 56", "city": "Gurugram", "slug": "sector-56-gurugram", "postalCode": "122011", "zipCode": "122011" },

  { "location": "Sector 57", "city": "Gurugram", "slug": "sector-57-gurugram", "postalCode": "122003", "zipCode": "122003" },

  { "location": "Sector 58", "city": "Gurugram", "slug": "sector-58-gurugram", "postalCode": "122102", "zipCode": "122102" },
  { "location": "Sector 59", "city": "Gurugram", "slug": "sector-59-gurugram", "postalCode": "122102", "zipCode": "122102" },
  { "location": "Sector 60", "city": "Gurugram", "slug": "sector-60-gurugram", "postalCode": "122102", "zipCode": "122102" },

  { "location": "Sector 61", "city": "Gurugram", "slug": "sector-61-gurugram", "postalCode": "122102", "zipCode": "122102" },
  { "location": "Sector 62", "city": "Gurugram", "slug": "sector-62-gurugram", "postalCode": "122102", "zipCode": "122102" },
  { "location": "Sector 63", "city": "Gurugram", "slug": "sector-63-gurugram", "postalCode": "122102", "zipCode": "122102" },
  { "location": "Sector 64", "city": "Gurugram", "slug": "sector-64-gurugram", "postalCode": "122102", "zipCode": "122102" },
  { "location": "Sector 65", "city": "Gurugram", "slug": "sector-65-gurugram", "postalCode": "122102", "zipCode": "122102" },
  { "location": "Sector 66", "city": "Gurugram", "slug": "sector-66-gurugram", "postalCode": "122102", "zipCode": "122102" },
  { "location": "Sector 67", "city": "Gurugram", "slug": "sector-67-gurugram", "postalCode": "122102", "zipCode": "122102" },
  { "location": "Sector 68", "city": "Gurugram", "slug": "sector-68-gurugram", "postalCode": "122102", "zipCode": "122102" },
  { "location": "Sector 69", "city": "Gurugram", "slug": "sector-69-gurugram", "postalCode": "122102", "zipCode": "122102" },
  { "location": "Sector 70", "city": "Gurugram", "slug": "sector-70-gurugram", "postalCode": "122102", "zipCode": "122102" },
  { "location": "Sector 71", "city": "Gurugram", "slug": "sector-71-gurugram", "postalCode": "122102", "zipCode": "122102" },
  { "location": "Sector 72", "city": "Gurugram", "slug": "sector-72-gurugram", "postalCode": "122102", "zipCode": "122102" },
  { "location": "Sector 73", "city": "Gurugram", "slug": "sector-73-gurugram", "postalCode": "122102", "zipCode": "122102" },

  { "location": "Sector 74", "city": "Gurugram", "slug": "sector-74-gurugram", "postalCode": "122004", "zipCode": "122004" },
  { "location": "Sector 75", "city": "Gurugram", "slug": "sector-75-gurugram", "postalCode": "122004", "zipCode": "122004" },
  { "location": "Sector 76", "city": "Gurugram", "slug": "sector-76-gurugram", "postalCode": "122004", "zipCode": "122004" },
  { "location": "Sector 77", "city": "Gurugram", "slug": "sector-77-gurugram", "postalCode": "122004", "zipCode": "122004" },
  { "location": "Sector 78", "city": "Gurugram", "slug": "sector-78-gurugram", "postalCode": "122004", "zipCode": "122004" },
  { "location": "Sector 79", "city": "Gurugram", "slug": "sector-79-gurugram", "postalCode": "122004", "zipCode": "122004" },
  { "location": "Sector 80", "city": "Gurugram", "slug": "sector-80-gurugram", "postalCode": "122004", "zipCode": "122004" },
  { "location": "Sector 81", "city": "Gurugram", "slug": "sector-81-gurugram", "postalCode": "122004", "zipCode": "122004" },
  { "location": "Sector 82", "city": "Gurugram", "slug": "sector-82-gurugram", "postalCode": "122004", "zipCode": "122004" },
  { "location": "Sector 83", "city": "Gurugram", "slug": "sector-83-gurugram", "postalCode": "122004", "zipCode": "122004" },
  { "location": "Sector 84", "city": "Gurugram", "slug": "sector-84-gurugram", "postalCode": "122004", "zipCode": "122004" },
  { "location": "Sector 85", "city": "Gurugram", "slug": "sector-85-gurugram", "postalCode": "122004", "zipCode": "122004" },
  { "location": "Sector 86", "city": "Gurugram", "slug": "sector-86-gurugram", "postalCode": "122004", "zipCode": "122004" },
  { "location": "Sector 87", "city": "Gurugram", "slug": "sector-87-gurugram", "postalCode": "122004", "zipCode": "122004" },
  { "location": "Sector 88", "city": "Gurugram", "slug": "sector-88-gurugram", "postalCode": "122004", "zipCode": "122004" },
  { "location": "Sector 89", "city": "Gurugram", "slug": "sector-89-gurugram", "postalCode": "122004", "zipCode": "122004" },
  { "location": "Sector 90", "city": "Gurugram", "slug": "sector-90-gurugram", "postalCode": "122004", "zipCode": "122004" },

  { "location": "Sector 91", "city": "Gurugram", "slug": "sector-91-gurugram", "postalCode": "122505", "zipCode": "122505" },
  { "location": "Sector 92", "city": "Gurugram", "slug": "sector-92-gurugram", "postalCode": "122505", "zipCode": "122505" },
  { "location": "Sector 93", "city": "Gurugram", "slug": "sector-93-gurugram", "postalCode": "122505", "zipCode": "122505" },
  { "location": "Sector 94", "city": "Gurugram", "slug": "sector-94-gurugram", "postalCode": "122505", "zipCode": "122505" },
  { "location": "Sector 95", "city": "Gurugram", "slug": "sector-95-gurugram", "postalCode": "122505", "zipCode": "122505" },
  { "location": "Sector 96", "city": "Gurugram", "slug": "sector-96-gurugram", "postalCode": "122505", "zipCode": "122505" },
  { "location": "Sector 97", "city": "Gurugram", "slug": "sector-97-gurugram", "postalCode": "122505", "zipCode": "122505" },
  { "location": "Sector 98", "city": "Gurugram", "slug": "sector-98-gurugram", "postalCode": "122505", "zipCode": "122505" },
  { "location": "Sector 99", "city": "Gurugram", "slug": "sector-99-gurugram", "postalCode": "122505", "zipCode": "122505" },
  { "location": "Sector 100", "city": "Gurugram", "slug": "sector-100-gurugram", "postalCode": "122505", "zipCode": "122505" },
  { "location": "Sector 101", "city": "Gurugram", "slug": "sector-101-gurugram", "postalCode": "122505", "zipCode": "122505" },
  { "location": "Sector 102", "city": "Gurugram", "slug": "sector-102-gurugram", "postalCode": "122505", "zipCode": "122505" },
  { "location": "Sector 103", "city": "Gurugram", "slug": "sector-103-gurugram", "postalCode": "122505", "zipCode": "122505" },
  { "location": "Sector 104", "city": "Gurugram", "slug": "sector-104-gurugram", "postalCode": "122505", "zipCode": "122505" },
  { "location": "Sector 105", "city": "Gurugram", "slug": "sector-105-gurugram", "postalCode": "122505", "zipCode": "122505" },
  { "location": "Sector 106", "city": "Gurugram", "slug": "sector-106-gurugram", "postalCode": "122505", "zipCode": "122505" },
  { "location": "Sector 107", "city": "Gurugram", "slug": "sector-107-gurugram", "postalCode": "122505", "zipCode": "122505" },
  { "location": "Sector 108", "city": "Gurugram", "slug": "sector-108-gurugram", "postalCode": "122505", "zipCode": "122505" },
  { "location": "Sector 109", "city": "Gurugram", "slug": "sector-109-gurugram", "postalCode": "122505", "zipCode": "122505" },
  { "location": "Sector 110", "city": "Gurugram", "slug": "sector-110-gurugram", "postalCode": "122505", "zipCode": "122505" },
  { "location": "Sector 111", "city": "Gurugram", "slug": "sector-111-gurugram", "postalCode": "122505", "zipCode": "122505" },
  { "location": "Sector 112", "city": "Gurugram", "slug": "sector-112-gurugram", "postalCode": "122505", "zipCode": "122505" },
  { "location": "Sector 113", "city": "Gurugram", "slug": "sector-113-gurugram", "postalCode": "122505", "zipCode": "122505" },
  { "location": "Sector 114", "city": "Gurugram", "slug": "sector-114-gurugram", "postalCode": "122505", "zipCode": "122505" },
  { "location": "Sector 115", "city": "Gurugram", "slug": "sector-115-gurugram", "postalCode": "122505", "zipCode": "122505" }
]

